BEIJING 1               
1 28890U 05043A   23158.43597143  .00000421  00000+0  93572-4 0  9990
2 28890  98.1583 280.1859 0015981 139.1881 221.0520 14.61806180938996
HJ-1A                   
1 33320U 08041A   23158.49156815  .00000823  00000+0  11911-3 0  9990
2 33320  97.6443 179.3079 0021548 152.6172 207.6181 14.78450115794838
HJ-1B                   
1 33321U 08041B   23158.48527021  .00001196  00000+0  16816-3 0  9994
2 33321  97.6566 183.5824 0033851 172.1547 188.0201 14.78741643794837
YAOGAN 4                
1 33446U 08061A   23158.26585491  .00001492  00000+0  21189-3 0  9993
2 33446  97.8518  93.4713 0017298  67.1355 293.1681 14.78286910781991
DEIMOS-1                
1 35681U 09041A   23158.44538389  .00000558  00000+0  95011-4 0  9997
2 35681  97.6851 355.7240 0002388 125.0154 235.1279 14.72532503744002
UK-DMC 2                
1 35683U 09041C   23158.39902271  .00000887  00000+0  14821-3 0  9992
2 35683  97.7326 318.0604 0001297 105.2762 254.8589 14.72138606743716
RISAT 1                 
1 38248U 12017A   23158.35188413  .00005915  00000+0  31022-3 0  9998
2 38248  97.5409 171.4496 0005633 108.2783 251.9063 15.16127936612522
DMC3-FM1                
1 40715U 15032A   23158.52218913  .00000777  00000+0  10263-3 0  9993
2 40715  97.8014  42.5205 0007464  82.8378 277.3684 14.82745635425893
DMC3-FM2                
1 40716U 15032B   23158.40935961  .00000753  00000+0  99565-4 0  9997
2 40716  97.8061  43.2476 0009291  85.2432 274.9843 14.82749937425880
DMC3-FM3                
1 40717U 15032C   23158.50005582  .00000767  00000+0  10144-3 0  9996
2 40717  97.8102  44.4066 0010895  82.8834 277.3618 14.82724977425891
